[
    {
        "Altitude(m)": 617719.7741903269,
        "Argument of Periapsis(deg)": 0.0,
        "Eccentricity": 0.0,
        "Inclination(deg)": 60.0,
        "Latitude(deg)": -41.10264889649605,
        "Longitude(deg)": -19.905285899001164,
        "Mean Anomaly(deg)": -130.9091,
        "RAAN(deg)": 229.99999999999997,
        "Satellite Name": "Test1 1026",
        "Satellite Number": 1026,
        "Semi-Major Axis(m)": 6980739.136638005,
        "Time(s)": 0
    },
    {
        "Altitude(m)": 617911.3098498064,
        "Argument of Periapsis(deg)": 0.00010418945913296404,
        "Eccentricity": 0.0,
        "Inclination(deg)": 60.0,
        "Latitude(deg)": -41.56584018948738,
        "Longitude(deg)": -19.40087818258147,
        "Mean Anomaly(deg)": -130.28899385453815,
        "RAAN(deg)": 229.99957995086024,
        "Satellite Name": "Test1 1026",
        "Satellite Number": 1026,
        "Semi-Major Axis(m)": 6980739.136638005,
        "Time(s)": 10
    }
]